[{"OBJECT_NAME":"LUSAT (LO-19)","OBJECT_ID":"1990-005G","EPOCH":"2026-03-09T14:54:14.260896","MEAN_MOTION":14.34087969,"ECCENTRICITY":0.001234,"INCLINATION":98.8938,"RA_OF_ASC_NODE":87.6461,"ARG_OF_PERICENTER":134.6824,"MEAN_ANOMALY":225.5367,"EPHEMERIS_TYPE":0,"CLASSIFICATION_TYPE":"U","NORAD_CAT_ID":20442,"ELEMENT_SET_NO":999,"REV_AT_EPOCH":88812,"BSTAR":8.4338e-5,"MEAN_MOTION_DOT":1.89e-6,"MEAN_MOTION_DDOT":0},{"OBJECT_NAME":"CZ-4C R\/B","OBJECT_ID":"2023-030C","EPOCH":"2026-03-09T17:22:10.485408","MEAN_MOTION":14.21874689,"ECCENTRICITY":0.00877202,"INCLINATION":98.9153,"RA_OF_ASC_NODE":111.3726,"ARG_OF_PERICENTER":142.3505,"MEAN_ANOMALY":218.3856,"EPHEMERIS_TYPE":0,"CLASSIFICATION_TYPE":"U","NORAD_CAT_ID":55838,"ELEMENT_SET_NO":999,"REV_AT_EPOCH":15568,"BSTAR":6.2077464e-5,"MEAN_MOTION_DOT":9.7e-7,"MEAN_MOTION_DDOT":0}]
